{
  "type": "FeatureCollection",
  "features": [
    {
      "type": "Feature",
      "properties": {
        "norad_id": 30663,
        "name": "FENGYUN 1C DEB",
        "group": "fengyun-1c-debris",
        "lat": -77.31412895218061,
        "lon": -54.45396044396126,
        "alt_km": 1466.8038865892413,
        "timestamp": "2025-12-07T07:31:36.576069+00:00",
        "meta_object_name": "FENGYUN 1C DEB",
        "meta_object_id": "1999-025APV",
        "meta_epoch": "2025-12-05T12:25:41.665440",
        "meta_mean_motion": 13.23094732,
        "meta_eccentricity": 0.06475188,
        "meta_inclination": 99.3024,
        "meta_ra_of_asc_node": 257.2057,
        "meta_arg_of_pericenter": 154.1824,
        "meta_mean_anomaly": 209.3175,
        "meta_ephemeris_type": 0,
        "meta_classification_type": "U",
        "meta_norad_cat_id": 30663,
        "meta_element_set_no": 999,
        "meta_rev_at_epoch": 88952,
        "meta_bstar": 0.0022629214,
        "meta_mean_motion_dot": 2.911e-05,
        "meta_mean_motion_ddot": 0,
        "tle_line1": "1 30663U 99025APV 25339.51784335  .00002911  00000+0  22629-2 0  9996",
        "tle_line2": "2 30663  99.3024 257.2057 0647518 154.1824 209.3175 13.23094732889524"
      },
      "geometry": {
        "type": "Point",
        "coordinates": [
          -54.45396044396126,
          -77.31412895218061
        ]
      }
    },
    {
      "type": "Feature",
      "properties": {
        "norad_id": 30665,
        "name": "FENGYUN 1C DEB",
        "group": "fengyun-1c-debris",
        "lat": 3.110314340507182,
        "lon": 133.2705057166819,
        "alt_km": 817.1145982691232,
        "timestamp": "2025-12-07T07:31:36.576080+00:00",
        "meta_object_name": "FENGYUN 1C DEB",
        "meta_object_id": "1999-025APX",
        "meta_epoch": "2025-12-05T11:03:31.169088",
        "meta_mean_motion": 14.12276088,
        "meta_eccentricity": 0.00677678,
        "meta_inclination": 99.2076,
        "meta_ra_of_asc_node": 310.863,
        "meta_arg_of_pericenter": 223.3487,
        "meta_mean_anomaly": 258.8154,
        "meta_ephemeris_type": 0,
        "meta_classification_type": "U",
        "meta_norad_cat_id": 30665,
        "meta_element_set_no": 999,
        "meta_rev_at_epoch": 95867,
        "meta_bstar": 0.0030616319,
        "meta_mean_motion_dot": 5.713e-05,
        "meta_mean_motion_ddot": 0,
        "tle_line1": "1 30665U 99025APX 25339.46077742  .00005713  00000+0  30616-2 0  9997",
        "tle_line2": "2 30665  99.2076 310.8630 0067767 223.3487 258.8154 14.12276088958675"
      },
      "geometry": {
        "type": "Point",
        "coordinates": [
          133.2705057166819,
          3.110314340507182
        ]
      }
    },
    {
      "type": "Feature",
      "properties": {
        "norad_id": 30666,
        "name": "FENGYUN 1C DEB",
        "group": "fengyun-1c-debris",
        "lat": 1.3280609304708948,
        "lon": 145.30758796097842,
        "alt_km": 845.9968939728642,
        "timestamp": "2025-12-07T07:31:36.576090+00:00",
        "meta_object_name": "FENGYUN 1C DEB",
        "meta_object_id": "1999-025APY",
        "meta_epoch": "2025-12-06T22:22:55.777728",
        "meta_mean_motion": 14.02550214,
        "meta_eccentricity": 0.00608814,
        "meta_inclination": 98.8224,
        "meta_ra_of_asc_node": 324.7323,
        "meta_arg_of_pericenter": 159.9895,
        "meta_mean_anomaly": 255.5012,
        "meta_ephemeris_type": 0,
        "meta_classification_type": "U",
        "meta_norad_cat_id": 30666,
        "meta_element_set_no": 999,
        "meta_rev_at_epoch": 96029,
        "meta_bstar": 0.00028483543,
        "meta_mean_motion_dot": 4.04e-06,
        "meta_mean_motion_ddot": 0,
        "tle_line1": "1 30666U 99025APY 25340.93259002  .00000404  00000+0  28484-3 0  9996",
        "tle_line2": "2 30666  98.8224 324.7323 0060881 159.9895 255.5012 14.02550214960299"
      },
      "geometry": {
        "type": "Point",
        "coordinates": [
          145.30758796097842,
          1.3280609304708948
        ]
      }
    },
    {
      "type": "Feature",
      "properties": {
        "norad_id": 30668,
        "name": "FENGYUN 1C DEB",
        "group": "fengyun-1c-debris",
        "lat": -80.83344987021918,
        "lon": 148.82518776250714,
        "alt_km": 802.8015664583363,
        "timestamp": "2025-12-07T07:31:36.576100+00:00",
        "meta_object_name": "FENGYUN 1C DEB",
        "meta_object_id": "1999-025AQA",
        "meta_epoch": "2025-12-03T03:46:19.506144",
        "meta_mean_motion": 14.12223902,
        "meta_eccentricity": 0.00784298,
        "meta_inclination": 99.1324,
        "meta_ra_of_asc_node": 50.0364,
        "meta_arg_of_pericenter": 272.9786,
        "meta_mean_anomaly": 116.1609,
        "meta_ephemeris_type": 0,
        "meta_classification_type": "U",
        "meta_norad_cat_id": 30668,
        "meta_element_set_no": 999,
        "meta_rev_at_epoch": 95920,
        "meta_bstar": 0.0023512126,
        "meta_mean_motion_dot": 4.404e-05,
        "meta_mean_motion_ddot": 0,
        "tle_line1": "1 30668U 99025AQA 25337.15717021  .00004404  00000+0  23512-2 0  9998",
        "tle_line2": "2 30668  99.1324  50.0364 0078429 272.9786 116.1609 14.12223902959207"
      },
      "geometry": {
        "type": "Point",
        "coordinates": [
          148.82518776250714,
          -80.83344987021918
        ]
      }
    },
    {
      "type": "Feature",
      "properties": {
        "norad_id": 30669,
        "name": "FENGYUN 1C DEB",
        "group": "fengyun-1c-debris",
        "lat": 27.766944101358465,
        "lon": 102.8503500274613,
        "alt_km": 817.6173507723433,
        "timestamp": "2025-12-07T07:31:36.576109+00:00",
        "meta_object_name": "FENGYUN 1C DEB",
        "meta_object_id": "1999-025AQB",
        "meta_epoch": "2025-12-06T18:57:27.798912",
        "meta_mean_motion": 14.02693932,
        "meta_eccentricity": 0.0117525,
        "meta_inclination": 98.6338,
        "meta_ra_of_asc_node": 277.7655,
        "meta_arg_of_pericenter": 193.4712,
        "meta_mean_anomaly": 196.0556,
        "meta_ephemeris_type": 0,
        "meta_classification_type": "U",
        "meta_norad_cat_id": 30669,
        "meta_element_set_no": 999,
        "meta_rev_at_epoch": 95370,
        "meta_bstar": 0.0019423879,
        "meta_mean_motion_dot": 3.147e-05,
        "meta_mean_motion_ddot": 0,
        "tle_line1": "1 30669U 99025AQB 25340.78990508  .00003147  00000+0  19424-2 0  9995",
        "tle_line2": "2 30669  98.6338 277.7655 0117525 193.4712 196.0556 14.02693932953705"
      },
      "geometry": {
        "type": "Point",
        "coordinates": [
          102.8503500274613,
          27.766944101358465
        ]
      }
    },
    {
      "type": "Feature",
      "properties": {
        "norad_id": 30670,
        "name": "FENGYUN 1C DEB",
        "group": "fengyun-1c-debris",
        "lat": -1.099010407706019,
        "lon": -154.30378114984708,
        "alt_km": 845.6416535805984,
        "timestamp": "2025-12-07T07:31:36.576119+00:00",
        "meta_object_name": "FENGYUN 1C DEB",
        "meta_object_id": "1999-025AQC",
        "meta_epoch": "2025-12-06T01:59:06.978624",
        "meta_mean_motion": 14.15813406,
        "meta_eccentricity": 0.00400203,
        "meta_inclination": 98.7117,
        "meta_ra_of_asc_node": 24.6615,
        "meta_arg_of_pericenter": 88.2321,
        "meta_mean_anomaly": 302.0262,
        "meta_ephemeris_type": 0,
        "meta_classification_type": "U",
        "meta_norad_cat_id": 30670,
        "meta_element_set_no": 999,
        "meta_rev_at_epoch": 97058,
        "meta_bstar": 0.00015391765,
        "meta_mean_motion_dot": 2.62e-06,
        "meta_mean_motion_ddot": 0,
        "tle_line1": "1 30670U 99025AQC 25340.08271966  .00000262  00000+0  15392-3 0  9996",
        "tle_line2": "2 30670  98.7117  24.6615 0040020  88.2321 302.0262 14.15813406970582"
      },
      "geometry": {
        "type": "Point",
        "coordinates": [
          -154.30378114984708,
          -1.099010407706019
        ]
      }
    },
    {
      "type": "Feature",
      "properties": {
        "norad_id": 30671,
        "name": "FENGYUN 1C DEB",
        "group": "fengyun-1c-debris",
        "lat": -2.3063627230096255,
        "lon": -134.37182393060408,
        "alt_km": 976.329683171155,
        "timestamp": "2025-12-07T07:31:36.576130+00:00",
        "meta_object_name": "FENGYUN 1C DEB",
        "meta_object_id": "1999-025AQD",
        "meta_epoch": "2025-12-06T22:56:07.550016",
        "meta_mean_motion": 13.95434026,
        "meta_eccentricity": 0.01265436,
        "meta_inclination": 99.2529,
        "meta_ra_of_asc_node": 45.6451,
        "meta_arg_of_pericenter": 49.1417,
        "meta_mean_anomaly": 134.6939,
        "meta_ephemeris_type": 0,
        "meta_classification_type": "U",
        "meta_norad_cat_id": 30671,
        "meta_element_set_no": 999,
        "meta_rev_at_epoch": 95114,
        "meta_bstar": 0.0019125476,
        "meta_mean_motion_dot": 2.73e-05,
        "meta_mean_motion_ddot": 0,
        "tle_line1": "1 30671U 99025AQD 25340.95564294  .00002730  00000+0  19125-2 0  9991",
        "tle_line2": "2 30671  99.2529  45.6451 0126543  49.1417 134.6939 13.95434026951149"
      },
      "geometry": {
        "type": "Point",
        "coordinates": [
          -134.37182393060408,
          -2.3063627230096255
        ]
      }
    }
  ]
}